NORAD_CAT_ID,OBJECT_NAME,OBJECT_TYPE,EPOCH,MEAN_MOTION,ECCENTRICITY,INCLINATION,RA_OF_ASC_NODE,ARG_OF_PERICENTER,MEAN_ANOMALY,BSTAR,MEAN_MOTION_DOT,MEAN_MOTION_DDOT,TLE_LINE0,TLE_LINE1,TLE_LINE2,SEMIMAJOR_AXIS,PERIOD,APOGEE,PERIGEE,DECAYED
49174.0,STARLINK-3047,PAYLOAD,2024-04-01 13:57:19,15.03334662,0.0002744,69.9973,254.518,239.0137,121.0755,0.00060679,8.166e-05,0.0,0 STARLINK-3047,1 49174U 21082AW  24092.58147032  .00008166  00000-0  60679-3 0  9997,2 49174  69.9973 254.5180 0002744 239.0137 121.0755 15.03334662141793,6934.759,95.787,558.527,554.721,0.0
49174.0,STARLINK-3047,PAYLOAD,2024-04-02 12:18:42,15.03348363,0.0002727,69.9973,252.1503,239.1808,120.9086,0.00055512,7.464e-05,0.0,0 STARLINK-3047,1 49174U 21082AW  24093.51299540  .00007464  00000-0  55512-3 0  9993,2 49174  69.9973 252.1503 0002727 239.1808 120.9086 15.03348363141937,6934.717,95.786,558.473,554.691,0.0
49174.0,STARLINK-3047,PAYLOAD,2024-04-02 13:54:31,15.03349378,0.0002734,69.9973,251.9814,239.9142,120.1749,0.00054867,7.377e-05,0.0,0 STARLINK-3047,1 49174U 21082AW  24093.57953252  .00007377  00000-0  54867-3 0  9991,2 49174  69.9973 251.9814 0002734 239.9142 120.1749 15.03349378141942,6934.714,95.786,558.475,554.683,0.0
49174.0,STARLINK-3047,PAYLOAD,2024-04-02 20:17:46,15.03352884,0.0002733,69.9972,251.3049,240.2875,119.8015,0.00054008,7.26e-05,0.0,0 STARLINK-3047,1 49174U 21082AW  24093.84568092  .00007260  00000-0  54008-3 0  9993,2 49174  69.9972 251.3049 0002733 240.2875 119.8015 15.03352884141983,6934.703,95.786,558.464,554.673,0.0
49174.0,STARLINK-3047,PAYLOAD,2024-04-03 12:15:54,15.03361777,0.0002719,69.9971,249.6139,240.6548,119.4342,0.00048594,6.523e-05,0.0,0 STARLINK-3047,1 49174U 21082AW  24094.51104866  .00006523  00000-0  48594-3 0  9997,2 49174  69.9971 249.6139 0002719 240.6548 119.4342 15.03361777142089,6934.676,95.785,558.426,554.655,0.0
49174.0,STARLINK-3047,PAYLOAD,2024-04-03 20:14:58,15.03366747,0.0002705,69.997,248.7683,241.0621,119.027,0.00051036,6.857e-05,0.0,0 STARLINK-3047,1 49174U 21082AW  24094.84373103  .00006857  00000-0  51036-3 0  9990,2 49174  69.9970 248.7683 0002705 241.0621 119.0270 15.03366747142138,6934.661,95.785,558.401,554.65,0.0
49174.0,STARLINK-3047,PAYLOAD,2024-04-04 13:48:54,15.03374898,0.0002662,69.9968,246.9081,241.6775,118.4118,0.00045948,6.165e-05,0.0,0 STARLINK-3047,1 49174U 21082AW  24095.57562961  .00006165  00000-0  45948-3 0  9990,2 49174  69.9968 246.9081 0002662 241.6775 118.4118 15.03374898142247,6934.636,95.784,558.347,554.655,0.0
49174.0,STARLINK-3047,PAYLOAD,2024-04-04 20:12:09,15.03380288,0.0002662,69.9968,246.2315,242.3276,117.7615,0.00051176,6.879e-05,0.0,0 STARLINK-3047,1 49174U 21082AW  24095.84177273  .00006879  00000-0  51176-3 0  9990,2 49174  69.9968 246.2315 0002662 242.3276 117.7615 15.03380288142282,6934.619,95.784,558.33,554.638,0.0
49174.0,STARLINK-3047,PAYLOAD,2024-04-05 12:10:15,15.0338954,0.0002618,69.9968,244.5403,243.472,116.6173,0.00051866,6.975e-05,0.0,0 STARLINK-3047,1 49174U 21082AW  24096.50712855  .00006975  00000-0  51866-3 0  9998,2 49174  69.9968 244.5403 0002618 243.4720 116.6173 15.03389540142386,6934.591,95.784,558.271,554.64,0.0
49174.0,STARLINK-3047,PAYLOAD,2024-04-05 20:09:19,15.03395036,0.0002579,69.9968,243.6947,243.8595,116.2301,0.00055627,7.489e-05,0.0,0 STARLINK-3047,1 49174U 21082AW  24096.83980479  .00007489  00000-0  55627-3 0  9993,2 49174  69.9968 243.6947 0002579 243.8595 116.2301 15.03395036142431,6934.574,95.783,558.227,554.65,0.0
49174.0,STARLINK-3047,PAYLOAD,2024-04-06 08:55:48,15.03403501,0.0002541,69.9969,242.3419,243.5008,116.5893,0.00055247,7.439e-05,0.0,0 STARLINK-3047,1 49174U 21082AW  24097.37208423  .00007439  00000-0  55247-3 0  9998,2 49174  69.9969 242.3419 0002541 243.5008 116.5893 15.03403501142512,6934.548,95.783,558.175,554.651,0.0
49174.0,STARLINK-3047,PAYLOAD,2024-04-07 10:28:45,15.03421401,0.0002411,69.9972,239.6357,244.3103,115.781,0.0005804,7.824e-05,0.0,0 STARLINK-3047,1 49174U 21082AW  24098.43663393  .00007824  00000-0  58040-3 0  9999,2 49174  69.9972 239.6357 0002411 244.3103 115.7810 15.03421401142673,6934.493,95.782,558.03,554.686,0.0
49174.0,STARLINK-3047,PAYLOAD,2024-04-07 15:16:10,15.03424806,0.0002429,69.9973,239.1286,243.1716,116.9198,0.00059886,8.077e-05,0.0,0 STARLINK-3047,1 49174U 21082AW  24098.63623553  .00008077  00000-0  59886-3 0  9995,2 49174  69.9973 239.1286 0002429 243.1716 116.9198 15.03424806142704,6934.482,95.781,558.032,554.663,0.0
49174.0,STARLINK-3047,PAYLOAD,2024-04-08 15:13:18,15.03442218,0.0002456,69.9982,236.5918,243.0079,117.0832,0.00064602,8.726e-05,0.0,0 STARLINK-3047,1 49174U 21082AW  24099.63423716  .00008726  00000-0  64602-3 0  9998,2 49174  69.9982 236.5918 0002456 243.0079 117.0832 15.03442218142858,6934.429,95.78,557.997,554.59,0.0
49174.0,STARLINK-3047,PAYLOAD,2024-04-08 20:00:43,15.03445723,0.0002433,69.9981,236.0843,243.2785,116.8128,0.00064392,8.698e-05,0.0,0 STARLINK-3047,1 49174U 21082AW  24099.83383604  .00008698  00000-0  64392-3 0  9995,2 49174  69.9981 236.0843 0002433 243.2785 116.8128 15.03445723142882,6934.418,95.78,557.97,554.596,0.0
49174.0,STARLINK-3047,PAYLOAD,2024-04-09 15:10:24,15.03462024,0.0002443,69.9983,234.0548,243.7515,116.3396,0.00073371,9.931e-05,0.0,0 STARLINK-3047,1 49174U 21082AW  24100.63222645  .00009931  00000-0  73371-3 0  9991,2 49174  69.9983 234.0548 0002443 243.7515 116.3396 15.03462024143001,6934.368,95.779,557.927,554.539,0.0
49174.0,STARLINK-3047,PAYLOAD,2024-04-10 02:21:02,15.034712,0.0002438,69.9981,232.8707,244.2447,115.8463,0.00074613,0.00010103,0.0,0 STARLINK-3047,1 49174U 21082AW  24101.09795038  .00010103  00000-0  74613-3 0  9996,2 49174  69.9981 232.8707 0002438 244.2447 115.8463 15.03471200143078,6934.339,95.778,557.895,554.514,0.0
49174.0,STARLINK-3047,PAYLOAD,2024-04-10 15:07:29,15.03481242,0.0002446,69.9982,231.5178,244.9166,115.1742,0.00070983,9.609e-05,0.0,0 STARLINK-3047,1 49174U 21082AW  24101.63020236  .00009609  00000-0  70983-3 0  9992,2 49174  69.9982 231.5178 0002446 244.9166 115.1742 15.03481242143150,6934.309,95.778,557.87,554.477,0.0
49174.0,STARLINK-3047,PAYLOAD,2024-04-10 18:19:06,15.03483593,0.0002448,69.9983,231.1796,245.2303,114.8604,0.00070145,9.495e-05,0.0,0 STARLINK-3047,1 49174U 21082AW  24101.76326497  .00009495  00000-0  70145-3 0  9997,2 49174  69.9983 231.1796 0002448 245.2303 114.8604 15.03483593143178,6934.301,95.778,557.864,554.469,0.0
49174.0,STARLINK-3047,PAYLOAD,2024-04-11 11:52:56,15.0350138,0.0002471,69.9983,229.3191,246.3419,113.7484,0.0007751,0.00010508,0.0,0 STARLINK-3047,1 49174U 21082AW  24102.49510293  .00010508  00000-0  77510-3 0  9997,2 49174  69.9983 229.3191 0002471 246.3419 113.7484 15.03501380143283,6934.247,95.776,557.825,554.398,0.0
49174.0,STARLINK-3047,PAYLOAD,2024-04-11 15:04:33,15.03505004,0.0002464,69.9982,228.981,246.5252,113.5651,0.00080903,0.00010974,0.0,0 STARLINK-3047,1 49174U 21082AW  24102.62816348  .00010974  00000-0  80903-3 0  9999,2 49174  69.9982 228.9810 0002464 246.5252 113.5651 15.03505004143308,6934.236,95.776,557.809,554.392,0.0
49174.0,STARLINK-3047,PAYLOAD,2024-04-11 18:16:09,15.03507922,0.0002475,69.9985,228.6428,246.968,113.122,0.00079095,0.00010727,0.0,0 STARLINK-3047,1 49174U 21082AW  24102.76122390  .00010727  00000-0  79095-3 0  9997,2 49174  69.9985 228.6428 0002475 246.9680 113.1220 15.03507922143325,6934.227,95.776,557.808,554.375,0.0
49174.0,STARLINK-3047,PAYLOAD,2024-04-12 13:25:47,15.03528521,0.000246,69.9984,226.6135,248.4408,111.6492,0.00087445,0.00011879,0.0,0 STARLINK-3047,1 49174U 21082AW  24103.55957947  .00011879  00000-0  87445-3 0  9996,2 49174  69.9984 226.6135 0002460 248.4408 111.6492 15.03528521143441,6934.163,95.775,557.734,554.322,0.0
49174.0,STARLINK-3047,PAYLOAD,2024-04-12 15:01:35,15.03529762,0.0002459,69.9984,226.4444,248.5358,111.5541,0.00085851,0.0001166,0.0,0 STARLINK-3047,1 49174U 21082AW  24103.62610875  .00011660  00000-0  85851-3 0  9997,2 49174  69.9984 226.4444 0002459 248.5358 111.5541 15.03529762143458,6934.159,95.775,557.73,554.319,0.0
49174.0,STARLINK-3047,PAYLOAD,2024-04-13 11:47:00,15.03555543,0.0002401,69.9982,224.246,250.1954,109.8949,0.0010228,0.00013924,0.0,0 STARLINK-3047,1 49174U 21082AW  24104.49098010  .00013924  00000-0  10228-2 0  9994,2 49174  69.9982 224.2460 0002401 250.1954 109.8949 15.03555543143580,6934.08,95.773,557.61,554.28,0.0
49174.0,STARLINK-3047,PAYLOAD,2024-04-13 18:10:12,15.03563147,0.0002388,69.9982,223.5697,250.5295,109.5609,0.0010163,0.00013838,0.0,0 STARLINK-3047,1 49174U 21082AW  24104.75709157  .00013838  00000-0  10163-2 0  9996,2 49174  69.9982 223.5697 0002388 250.5295 109.5609 15.03563147143624,6934.057,95.772,557.578,554.266,0.0
49174.0,STARLINK-3047,PAYLOAD,2024-04-14 18:07:11,15.03596797,0.0002258,69.998,221.0328,255.869,104.2221,0.0012145,0.00016577,0.0,0 STARLINK-3047,1 49174U 21082AW  24105.75499621  .00016577  00000-0  12145-2 0  9994,2 49174  69.9980 221.0328 0002258 255.8690 104.2221 15.03596797143774,6933.953,95.77,557.384,554.253,0.0
49174.0,STARLINK-3047,PAYLOAD,2024-04-15 11:40:57,15.03625961,0.0002243,69.9978,219.1725,258.184,101.907,0.0013907,0.00019017,0.0,0 STARLINK-3047,1 49174U 21082AW  24106.48677687  .00019017  00000-0  13907-2 0  9994,2 49174  69.9978 219.1725 0002243 258.1840 101.9070 15.03625961143881,6933.864,95.768,557.284,554.173,0.0
49174.0,STARLINK-3047,PAYLOAD,2024-04-15 18:04:08,15.03636804,0.0002226,69.9978,218.4959,257.8207,102.2706,0.0014142,0.00019347,0.0,0 STARLINK-3047,1 49174U 21082AW  24106.75287558  .00019347  00000-0  14142-2 0  9996,2 49174  69.9978 218.4959 0002226 257.8207 102.2706 15.03636804143929,6933.83,95.768,557.239,554.152,0.0
49174.0,STARLINK-3047,PAYLOAD,2024-04-16 13:13:39,15.03681598,0.0002218,69.9977,216.4659,258.2876,101.8037,0.0021464,0.00029492,0.0,0 STARLINK-3047,1 49174U 21082AW  24107.55115699  .00029492  00000-0  21464-2 0  9998,2 49174  69.9977 216.4659 0002218 258.2876 101.8037 15.03681598144047,6933.693,95.765,557.096,554.02,0.0
